PROMETHEUS 2-3          
1 41855U 16067H   25150.91952491  .00043865  00000+0  85173-3 0  9998
2 41855  98.0719   2.3135 0003655 289.8845  70.2009 15.47515399468911
CORVUS BC2              
1 42846U 17042X   25150.92249477  .00002683  00000+0  20402-3 0  9994
2 42846  97.3731 323.9779 0013576 346.4083  13.6776 15.02873318429582
CORVUS BC1              
1 42847U 17042Y   25150.90861454  .00003693  00000+0  27756-3 0  9999
2 42847  97.3745 324.4879 0012181 317.6092  42.4192 15.03105528429603
MIRATA                  
1 43015U 17073C   25150.67152582  .00064675  00000+0  10851-2 0  9994
2 43015  97.5394  45.0684 0085915 120.9114 240.0619 15.47441136409275
MAKERSAT 0              
1 43016U 17073D   25150.63684342  .00013505  00000+0  54570-3 0  9998
2 43016  97.5197  28.9198 0147920 174.0087 186.2960 15.15288048408232
SIRION PATHFINDER-2     
1 43759U 18099B   25150.90553531  .00005622  00000+0  35149-3 0  9998
2 43759  97.4768 204.0642 0010096 170.0662 190.0769 15.09788640354852
CORVUS BC4              
1 43767U 18099K   25150.86118065  .00004456  00000+0  29114-3 0  9990
2 43767  97.4591 199.8850 0007687 228.6076 131.4493 15.08292309354694
MOVE-II                 
1 43780U 18099Y   25150.93204311  .00223321  00000+0  16753-2 0  9991
2 43780  97.4647 225.8441 0006426 190.3215 169.7917 15.71924330356285
SPACEBEE-7              
1 43816U 18099BL  25150.43692187  .00035345  00000+0  10161-2 0  9992
2 43816  97.4954 220.4799 0007798 144.8047 215.3713 15.35697519355246
SHIELDS 1               
1 43850U 18104B   25150.75716349  .00029962  00000+0  36251-3 0  9996
2 43850  85.0156  43.4647 0007312 157.3827 202.7759 15.60501628359925
SONATE                  
1 44400U 19038Q   25150.58368586  .00231789  21587-4  81508-3 0  9997
2 44400  97.6879 176.2701 0004591 217.8621 142.2328 15.89152708327987
DUCHIFAT-3              
1 44854U 19089C   25150.87367080  .00042669  00000+0  85632-3 0  9997
2 44854  36.9441  56.8750 0004717 256.7275 103.2955 15.45706953301518
M2 PATHFINDER           
1 45727U 20037E   25150.94684974  .00002185  00000+0  17059-3 0  9991
2 45727  97.8137 333.5304 0013140  12.8308 347.3248 15.02149567268067
NETSAT-4                
1 46504U 20068U   25150.93084471  .00013307  00000+0  45810-3 0  9998
2 46504  97.8453 128.2167 0005636 224.2877 135.7912 15.30173050257070
NETSAT-3                
1 46505U 20068V   25150.91399508  .00011583  00000+0  41779-3 0  9991
2 46505  97.8453 127.1634 0005132 238.9481 121.1255 15.28688913257033
NETSAT-1                
1 46506U 20068W   25150.87107619  .00009864  00000+0  41033-3 0  9999
2 46506  97.8481 125.0153 0004673 261.3338  98.7368 15.23985926256883
NETSAT-2                
1 46507U 20068X   25150.91892895  .00012713  00000+0  44342-3 0  9995
2 46507  97.8452 127.6967 0003465 260.8704  99.2143 15.29768715257016
WILDTRACKCUBE-SIMBA     
1 47941U 21022K   25150.92653586  .00028396  00000+0  60525-3 0  9997
2 47941  97.4234  55.2462 0009293   3.1335 356.9970 15.44836981231709
GRBALPHA                
1 47959U 21022AD  25150.95450059  .00719286  23788-3  14476-2 0  9999
2 47959  97.4067  64.9429 0005659 160.3531 199.7966 15.99693472231162
LEDSAT                  
1 49069U 21073D   25150.74951146  .00063622  00000+0  80093-3 0  9992
2 49069  97.3889 231.8854 0010904 118.9701 241.2650 15.59372828209906
GREENCUBE (IO-117)      
1 53109U 22080E   25148.13988395 -.00000003  00000+0  00000+0 0  9998
2 53109  70.1390  72.1449 0008677  11.3106 348.7748  6.42584049 67328
SITRO-AIS 5 (KATYS)     
1 57176U 23091L   25150.94186268  .00008838  00000+0  41728-3 0  9999
2 57176  97.5582 207.8775 0013955  11.2185 348.9358 15.19591382106114
SITRO-AIS 6 (CHIRKIN)   
1 57192U 23091AC  25150.92866167  .00008654  00000+0  40980-3 0  9993
2 57192  97.5579 207.8763 0013858  10.7825 349.3703 15.19497091106113
SITRO-AIS 8 (ANOKHIN)   
1 57193U 23091AD  25150.91091138  .00010001  00000+0  45449-3 0  9995
2 57193  97.5576 208.3426 0013256  10.6768 349.4746 15.20881100106141
SITRO-AIS 7 (FARTUSHNIY)
1 57194U 23091AE  25150.94967498  .00008894  00000+0  42220-3 0  9991
2 57194  97.5581 207.8376 0013741  11.6525 348.5025 15.19406953106111
SITRO-AIS 10 (BURDAEV)  
1 57199U 23091AK  25150.91338384  .00012938  00000+0  53325-3 0  9991
2 57199  97.5590 210.6162 0008611 357.3256   2.7934 15.24186579106283
SITRO-AIS 9 (SHCHUKIN)  
1 57201U 23091AM  25150.92993893  .00011815  00000+0  48999-3 0  9992
2 57201  97.5585 210.5504 0008592 357.6076   2.5118 15.24001435106280
SITRO-AIS 12 (SMIRENNIY)
1 57204U 23091AQ  25150.91329493  .00012791  00000+0  52697-3 0  9997
2 57204  97.5596 210.8112 0008317 350.8902   9.2182 15.24204926106297
SITRO-AIS 11 (SHEFFER)  
1 57208U 23091AU  25150.93316986  .00011799  00000+0  48360-3 0  9995
2 57208  97.5593 210.9172 0008158 351.3560   8.7535 15.24401038106305
VERONIKA                
1 58261U 23174F   25150.89173743  .00131846  00000+0  11939-2 0  9991
2 58261  97.4120 236.5031 0003661 119.9079 240.2546 15.67639887 87164
ROBUSTA-1E (ENSO)       
1 58470U 23185J   25150.92257117  .00053323  00000+0  79858-3 0  9995
2 58470  97.3734 225.7387 0008512 121.8262 238.3822 15.54761228 83539
SITRO-AIS 25            
1 59066U 24039R   25150.91517333  .00005285  00000+0  45142-3 0  9997
2 59066  95.3752 333.4374 0154701 219.9866 138.9885 14.89017772 67758
SITRO-AIS 26            
1 59067U 24039S   25150.94011114  .00004575  00000+0  39258-3 0  9999
2 59067  95.3755 333.4155 0154880 220.1382 138.8319 14.88871892 67755
SITRO-AIS 27            
1 59068U 24039T   25150.93721504  .00004830  00000+0  41154-3 0  9992
2 59068  95.3756 333.5341 0154167 219.4962 139.4946 14.89194836 67769
SITRO-AIS 28            
1 59071U 24039U   25150.92454933  .00005434  00000+0  46223-3 0  9997
2 59071  95.3756 333.5513 0154005 219.4469 139.5462 14.89235289 67769
GRBBETA                 
1 60237U 24128C   25150.88694334  .00005122  00000+0  38825-3 0  9991
2 60237  61.9910 113.3518 0051284  55.2844 305.3061 15.02530255 48745
OOV-CUBE (TUBSAT-30)    
1 60240U 24128F   25150.39861584  .00003408  00000+0  28039-3 0  9995
2 60240  61.9948 117.7266 0051028  52.0177 308.5505 15.00187581 48632
ROBUSTA-3A (MEDITERRAN*)
1 60243U 24128J   25150.27426521  .00009061  00000+0  64115-3 0  9999
2 60243  61.9878 114.7227 0049937  48.7637 311.7741 15.04460954 48674
LASARSAT                
1 62391U 24247Q   25150.23250238  .00016764  00000+0  65671-3 0  9999
2 62391  44.9850 216.2940 0008032 336.6021  23.4495 15.25616273 24484
CROCUBE                 
1 62394U 24247T   25150.88254155  .00014022  00000+0  54810-3 0  9993
2 62394  44.9803 212.6804 0008417 341.0088  19.0479 15.25811032 24588
